[{"OBJECT_NAME":"CORVUS BC1","OBJECT_ID":"2017-042Y","EPOCH":"2026-03-09T22:24:00.973440","MEAN_MOTION":15.05817893,"ECCENTRICITY":0.00132832,"INCLINATION":97.3986,"RA_OF_ASC_NODE":234.9925,"ARG_OF_PERICENTER":71.1953,"MEAN_ANOMALY":289.0714,"EPHEMERIS_TYPE":0,"CLASSIFICATION_TYPE":"U","NORAD_CAT_ID":42847,"ELEMENT_SET_NO":999,"REV_AT_EPOCH":47215,"BSTAR":0.00033801202,"MEAN_MOTION_DOT":4.853e-5,"MEAN_MOTION_DDOT":0},{"OBJECT_NAME":"STARLINK-3752","OBJECT_ID":"2022-041BD","EPOCH":"2026-03-09T07:46:05.901888","MEAN_MOTION":15.08838456,"ECCENTRICITY":0.00014,"INCLINATION":53.2169,"RA_OF_ASC_NODE":90.7155,"ARG_OF_PERICENTER":84.1617,"MEAN_ANOMALY":275.9535,"EPHEMERIS_TYPE":0,"CLASSIFICATION_TYPE":"U","NORAD_CAT_ID":52312,"ELEMENT_SET_NO":999,"REV_AT_EPOCH":21581,"BSTAR":5.193817e-5,"MEAN_MOTION_DOT":5.39e-6,"MEAN_MOTION_DDOT":0}]
