CORVUS BC1              
1 42847U 17042Y   26068.93334460  .00004853  00000+0  33801-3 0  9990
2 42847  97.3986 234.9925 0013283  71.1953 289.0714 15.05817892472152
STARLINK-3752           
1 52312U 22041BD  26068.32367942  .00000539  00000+0  51938-4 0  9996
2 52312  53.2169  90.7155 0001400  84.1617 275.9535 15.08838456215811
